OBJECT_NAME,OBJECT_ID,EPOCH,MEAN_MOTION,ECCENTRICITY,INCLINATION,RA_OF_ASC_NODE,ARG_OF_PERICENTER,MEAN_ANOMALY,EPHEMERIS_TYPE,CLASSIFICATION_TYPE,NORAD_CAT_ID,ELEMENT_SET_NO,REV_AT_EPOCH,BSTAR,MEAN_MOTION_DOT,MEAN_MOTION_DDOT
STARLINK-4313,2022-077X,2026-06-19T09:18:53.644032,15.05615493,.00010795,97.3441,350.3929,57.1070,303.0261,0,U,53064,999,21628,.9067227E-3,.13037E-3,0
STARLINK-4312,2022-077Y,2026-06-19T12:12:23.408064,15.05658471,.00019717,97.3397,349.4565,89.6811,270.4643,0,U,53065,999,21623,-.20002184E-4,-.346E-5,0
STARLINK-4309,2022-077Z,2026-06-19T01:34:23.040480,15.05650606,.00012408,97.3457,348.9862,118.2452,241.8901,0,U,53066,999,21616,.25176933E-3,.3577E-4,0
STARLINK-4325,2022-077AB,2026-06-19T09:10:53.298048,15.05680741,.00018779,97.3402,350.3847,82.9841,277.1600,0,U,53068,999,21628,-.42231398E-3,-.615E-4,0
STARLINK-4323,2022-077AC,2026-06-19T11:36:30.837600,15.05617942,.00019795,97.3435,349.3206,100.4905,259.6546,0,U,53069,999,21622,.71177059E-3,.10219E-3,0
STARLINK-4342,2022-077AD,2026-06-19T11:26:30.628032,15.05601379,.00014416,97.3396,350.5616,94.2359,265.9034,0,U,53070,999,21630,.7145881E-3,.10255E-3,0
STARLINK-4328,2022-077AE,2026-06-19T01:48:18.250272,15.05659359,.0001403,97.3439,350.1693,88.5158,271.6230,0,U,53071,999,21624,-.14555737E-3,-.2157E-4,0
STARLINK-4344,2022-077AF,2026-06-19T01:28:20.939808,15.05657389,.00010972,97.3440,350.0446,127.0455,233.0873,0,U,53072,999,21623,-.3954686E-4,-.628E-5,0
STARLINK-4346,2022-077AG,2026-06-19T12:24:13.777632,15.22773100,.00049613,97.6360,0.1008,216.8129,143.2767,0,U,53073,999,21678,.47612493E-3,.11059E-3,0
STARLINK-4310,2022-077AH,2026-06-19T14:00:01.999872,15.28069246,.00019943,97.5791,351.9177,77.0936,326.6653,0,U,53074,999,579,.37401656E-1,.1105642E-1,0
STARLINK-4348,2022-077AJ,2026-06-19T11:44:28.844736,15.05650551,.00015995,97.3405,349.4440,89.4545,270.6865,0,U,53075,999,21623,.5988679E-5,.29E-6,0
STARLINK-4347,2022-077AK,2026-06-19T01:46:20.688384,15.05647087,.00012499,97.3412,348.9477,92.2886,267.8485,0,U,53076,999,21616,.41379823E-4,.54E-5,0
STARLINK-4322,2022-077AM,2026-06-19T11:52:28.586784,15.05595416,.00022267,97.3409,349.4409,109.7580,250.3887,0,U,53078,999,21623,.82669005E-3,.11873E-3,0
STARLINK-4327,2022-077AN,2026-06-19T11:46:25.730976,15.05648004,.00018643,97.3389,350.5008,88.0826,272.0615,0,U,53079,999,21630,.975088E-5,.84E-6,0
STARLINK-4330,2022-077AP,2026-06-19T12:10:20.170560,15.05660090,.00020509,97.3408,350.4882,84.6566,275.4895,0,U,53080,999,21630,-.6511443E-4,-.997E-5,0
STARLINK-4326,2022-077AQ,2026-06-19T01:30:23.366016,15.05659339,.00009665,97.3413,348.9347,82.2949,277.8389,0,U,53081,999,21616,-.88885902E-4,-.134E-4,0
STARLINK-4321,2022-077AR,2026-06-19T11:28:31.789344,15.05604498,.00018204,97.3396,349.2940,101.2709,258.8723,0,U,53082,999,21622,.62683085E-3,.8987E-4,0
STARLINK-4251,2022-077AS,2026-06-19T12:02:21.850656,15.05658424,.0002178,97.3390,350.4523,76.1330,284.0139,0,U,53083,999,21630,-.53067209E-4,-.823E-5,0
STARLINK-4319,2022-077AT,2026-06-19T11:58:22.428480,15.05655317,.0002415,97.3451,350.4816,94.0629,266.0875,0,U,53084,999,21630,-.12898312E-4,-.243E-5,0
STARLINK-4324,2022-077AU,2026-06-19T12:18:19.109088,15.05649118,.00022734,97.3396,350.4545,83.7338,276.4148,0,U,53085,999,21630,.58965553E-4,.794E-5,0
STARLINK-4318,2022-077AV,2026-06-19T01:50:20.627232,15.05648295,.00010446,97.3400,349.0626,99.1468,260.9877,0,U,53086,999,21617,-.1206782E-5,-.74E-6,0
STARLINK-4333,2022-077AX,2026-06-19T01:42:22.159584,15.05650519,.00017781,97.3426,348.9090,80.4709,279.6720,0,U,53088,999,21616,.38879582E-4,.504E-5,0
TIANLIAN 2-03,2022-078A,2026-06-19T12:55:36.951168,1.00271234,.00013918,0.6769,77.0833,332.0015,63.1595,0,U,53100,999,1457,0,.66E-6,0
LARES-2,2022-080A,2026-06-16T13:01:59.257344,6.38965086,.00053801,70.1619,305.5499,334.9817,25.0421,0,U,53105,999,9162,0,-.16E-6,0
GREENCUBE (IO-117),2022-080E,2026-06-19T08:43:01.159104,6.42583239,.00089135,70.1443,297.4882,289.1275,70.8419,0,U,53109,999,9220,0,-.3E-7,0
SUPERVIEW NEO-2 01,2022-082A,2026-06-19T12:45:27.528768,15.24504106,.00016464,97.3939,180.4575,89.9966,270.1460,0,U,53128,999,21856,.68455966E-4,.1612E-4,0
SUPERVIEW NEO-2 02,2022-082C,2026-06-19T13:19:02.549568,15.24502265,.00017075,97.3940,180.5360,89.2738,270.8695,0,U,53130,999,21857,.40675735E-4,.929E-5,0
STARLINK-4150,2022-083C,2026-06-19T00:31:39.074592,15.08843197,.00013727,53.1617,79.1184,89.9998,270.1150,0,U,53134,999,21651,.10183309E-3,.1333E-4,0
STARLINK-4023,2022-083D,2026-06-19T14:00:01.999872,15.13524257,.00025856,53.1600,76.5500,82.5135,71.0874,0,U,53135,999,544,.39869571E-2,.7269E-3,0
STARLINK-4152,2022-083E,2026-06-19T00:36:56.334528,15.08835111,.00014018,53.1620,79.1011,89.7061,270.4091,0,U,53136,999,21750,-.17877325E-4,-.573E-5,0
