STARLINK-4313           
1 53064U 22077X   26170.38812088  .00013037  00000+0  90672-3 0  9990
2 53064  97.3441 350.3929 0001079  57.1070 303.0261 15.05615493216289
STARLINK-4312           
1 53065U 22077Y   26170.50860426 -.00000346  00000+0 -20002-4 0  9996
2 53065  97.3397 349.4565 0001971  89.6811 270.4643 15.05658471216238
STARLINK-4309           
1 53066U 22077Z   26170.06554445  .00003577  00000+0  25177-3 0  9993
2 53066  97.3457 348.9862 0001240 118.2452 241.8901 15.05650606216162
STARLINK-4325           
1 53068U 22077AB  26170.38256132 -.00006150  00000+0 -42231-3 0  9994
2 53068  97.3402 350.3847 0001877  82.9841 277.1600 15.05680741216283
STARLINK-4323           
1 53069U 22077AC  26170.48369025  .00010219  00000+0  71177-3 0  9992
2 53069  97.3435 349.3206 0001979 100.4905 259.6546 15.05617942216228
STARLINK-4342           
1 53070U 22077AD  26170.47674338  .00010255  00000+0  71459-3 0  9992
2 53070  97.3396 350.5616 0001441  94.2359 265.9034 15.05601379216300
STARLINK-4328           
1 53071U 22077AE  26170.07521123 -.00002157  00000+0 -14556-3 0  9991
2 53071  97.3439 350.1693 0001403  88.5158 271.6230 15.05659359216247
STARLINK-4344           
1 53072U 22077AF  26170.06135347 -.00000628  00000+0 -39547-4 0  9999
2 53072  97.3440 350.0446 0001097 127.0455 233.0873 15.05657389216238
STARLINK-4346           
1 53073U 22077AG  26170.51682613  .00011059  00000+0  47612-3 0  9992
2 53073  97.6360   0.1008 0004961 216.8129 143.2767 15.22773100216781
STARLINK-4310           
1 53074U 22077AH  26170.58335648  .01105642  00000+0  37402-1 0  9990
2 53074  97.5791 351.9177 0001994  77.0936 326.6653 15.28069246  5792
STARLINK-4348           
1 53075U 22077AJ  26170.48922274  .00000029  00000+0  59887-5 0  9994
2 53075  97.3405 349.4440 0001599  89.4545 270.6865 15.05650551216238
STARLINK-4347           
1 53076U 22077AK  26170.07385056  .00000540  00000+0  41380-4 0  9997
2 53076  97.3412 348.9477 0001249  92.2886 267.8485 15.05647087216161
STARLINK-4322           
1 53078U 22077AM  26170.49477531  .00011873  00000+0  82669-3 0  9990
2 53078  97.3409 349.4409 0002226 109.7580 250.3887 15.05595416216230
STARLINK-4327           
1 53079U 22077AN  26170.49057559  .00000084  00000+0  97509-5 0  9998
2 53079  97.3389 350.5008 0001864  88.0826 272.0615 15.05648004216305
STARLINK-4330           
1 53080U 22077AP  26170.50717790 -.00000997  00000+0 -65114-4 0  9993
2 53080  97.3408 350.4882 0002050  84.6566 275.4895 15.05660090216305
STARLINK-4326           
1 53081U 22077AQ  26170.06277044 -.00001340  00000+0 -88886-4 0  9992
2 53081  97.3413 348.9347 0000966  82.2949 277.8389 15.05659339216165
STARLINK-4321           
1 53082U 22077AR  26170.47814571  .00008987  00000+0  62683-3 0  9998
2 53082  97.3396 349.2940 0001820 101.2709 258.8723 15.05604498216229
STARLINK-4251           
1 53083U 22077AS  26170.50164179 -.00000823  00000+0 -53067-4 0  9995
2 53083  97.3390 350.4523 0002178  76.1330 284.0139 15.05658424216301
STARLINK-4319           
1 53084U 22077AT  26170.49887070 -.00000243  00000+0 -12898-4 0  9999
2 53084  97.3451 350.4816 0002415  94.0629 266.0875 15.05655317216304
STARLINK-4324           
1 53085U 22077AU  26170.51272117  .00000794  00000+0  58966-4 0  9998
2 53085  97.3396 350.4545 0002273  83.7338 276.4148 15.05649118216306
STARLINK-4318           
1 53086U 22077AV  26170.07662763 -.00000074  00000+0 -12068-5 0  9997
2 53086  97.3400 349.0626 0001044  99.1468 260.9877 15.05648295216174
STARLINK-4333           
1 53088U 22077AX  26170.07108981  .00000504  00000+0  38880-4 0  9991
2 53088  97.3426 348.9090 0001778  80.4709 279.6720 15.05650519216167
TIANLIAN 2-03           
1 53100U 22078A   26170.53862212  .00000066  00000+0  00000+0 0  9993
2 53100   0.6769  77.0833 0001391 332.0015  63.1595  1.00271234 14571
LARES-2                 
1 53105U 22080A   26167.54304696 -.00000016  00000+0  00000+0 0  9991
2 53105  70.1619 305.5499 0005380 334.9817  25.0421  6.38965086 91629
GREENCUBE (IO-117)      
1 53109U 22080E   26170.36320786 -.00000003  00000+0  00000+0 0  9993
2 53109  70.1443 297.4882 0008913 289.1275  70.8419  6.42583239 92208
SUPERVIEW NEO-2 01      
1 53128U 22082A   26170.53156862  .00001612  00000+0  68456-4 0  9997
2 53128  97.3939 180.4575 0001646  89.9966 270.1460 15.24504106218565
SUPERVIEW NEO-2 02      
1 53130U 22082C   26170.55489062  .00000929  00000+0  40676-4 0  9997
2 53130  97.3940 180.5360 0001707  89.2738 270.8695 15.24502265218573
STARLINK-4150           
1 53134U 22083C   26170.02198003  .00001333  00000+0  10183-3 0  9995
2 53134  53.1617  79.1184 0001372  89.9998 270.1150 15.08843197216513
STARLINK-4023           
1 53135U 22083D   26170.58335648  .00072690  00000+0  39870-2 0  9992
2 53135  53.1600  76.5500 0002585  82.5135  71.0874 15.13524257  5446
STARLINK-4152           
1 53136U 22083E   26170.02565202 -.00000573  00000+0 -17877-4 0  9991
2 53136  53.1620  79.1011 0001401  89.7061 270.4091 15.08835111217504
